[{"OBJECT_NAME":"STARLINK-30770","OBJECT_ID":"2023-162Q","EPOCH":"2026-03-09T22:00:01.999584","MEAN_MOTION":15.24100693,"ECCENTRICITY":0.0001196,"INCLINATION":43.0011,"RA_OF_ASC_NODE":131.178,"ARG_OF_PERICENTER":269.1911,"MEAN_ANOMALY":28.4248,"EPHEMERIS_TYPE":0,"CLASSIFICATION_TYPE":"U","NORAD_CAT_ID":58132,"ELEMENT_SET_NO":999,"REV_AT_EPOCH":572,"BSTAR":0.047198157,"MEAN_MOTION_DOT":0.0128197,"MEAN_MOTION_DDOT":0},{"OBJECT_NAME":"CZ-4B DEB","OBJECT_ID":"2025-115B","EPOCH":"2026-03-09T18:01:12.826560","MEAN_MOTION":15.38891594,"ECCENTRICITY":0.00333367,"INCLINATION":97.487,"RA_OF_ASC_NODE":148.3212,"ARG_OF_PERICENTER":280.8109,"MEAN_ANOMALY":78.9385,"EPHEMERIS_TYPE":0,"CLASSIFICATION_TYPE":"U","NORAD_CAT_ID":64200,"ELEMENT_SET_NO":999,"REV_AT_EPOCH":4325,"BSTAR":0.0021921784,"MEAN_MOTION_DOT":0.00086722,"MEAN_MOTION_DDOT":0}]
